start=new Date('2021-11-11T00:00:00.000Z').valueOf();
sats=[{"FILE":"3211038","REF_FRAME":"TEME","CLASSIFICATION_TYPE":"U","BSTAR":"-0.00002839800000","NORAD_CAT_ID":"45763","INCLINATION":"53.0547","RCS_SIZE":"LARGE","SEMIMAJOR_AXIS":"6748.808","OBJECT_NAME":"STARLINK-1501","PERIOD":"91.960","ELEMENT_SET_NO":"999","MEAN_ANOMALY":"359.6038","ARG_OF_PERICENTER":"0.4981","ECCENTRICITY":"0.00043650","GP_ID":"189423454","PERIAPSIS":"367.727","MEAN_MOTION_DOT":"-0.00003507","CENTER_NAME":"EARTH","MEAN_MOTION_DDOT":"0.0000000000000","TIME_SYSTEM":"UTC","RA_OF_ASC_NODE":"51.3304","APOAPSIS":"373.619","DECAY_DATE":null,"EPHEMERIS_TYPE":"0","OBJECT_TYPE":"PAYLOAD","REV_AT_EPOCH":"7933","TLE_LINE1":"1 45763U 20038AK  21314.55922935 -.00003507  00000-0 -28398-4 0  9990","SITE":"AFETR","EPOCH":"2021-11-10T13:25:17.415840","LAUNCH_DATE":"2020-06-13","MEAN_ELEMENT_THEORY":"SGP4","COUNTRY_CODE":"US","TLE_LINE2":"2 45763  53.0547  51.3304 0004365   0.4981 359.6038 15.65893359 79337","MEAN_MOTION":"15.65893359","OBJECT_ID":"2020-038AK"},{"ECCENTRICITY":"0.00017670","ARG_OF_PERICENTER":"85.9819","TIME_SYSTEM":"UTC","MEAN_MOTION_DDOT":"0.0000000000000","PERIAPSIS":"545.998","CENTER_NAME":"EARTH","MEAN_MOTION_DOT":"0.00000877","GP_ID":"189422278","BSTAR":"0.00007779700000","CLASSIFICATION_TYPE":"U","REF_FRAME":"TEME","FILE":"3211038","MEAN_ANOMALY":"274.1372","ELEMENT_SET_NO":"999","PERIOD":"95.592","OBJECT_NAME":"STARLINK-1502","SEMIMAJOR_AXIS":"6925.357","RCS_SIZE":"LARGE","NORAD_CAT_ID":"45764","INCLINATION":"53.0536","OBJECT_ID":"2020-038AL","TLE_LINE2":"2 45764  53.0536 108.8565 0001767  85.9819 274.1372 15.06397183 78367","MEAN_MOTION":"15.06397183","COUNTRY_CODE":"US","MEAN_ELEMENT_THEORY":"SGP4","LAUNCH_DATE":"2020-06-13","EPOCH":"2021-11-10T20:02:15.458496","EPHEMERIS_TYPE":"0","DECAY_DATE":null,"APOAPSIS":"548.446","RA_OF_ASC_NODE":"108.8565","SITE":"AFETR","TLE_LINE1":"1 45764U 20038AL  21314.83490114  .00000877  00000-0  77797-4 0  9993","REV_AT_EPOCH":"7836","OBJECT_TYPE":"PAYLOAD"},{"OBJECT_TYPE":"PAYLOAD","TLE_LINE1":"1 45766U 20038AN  21314.75750871  .00001103  00000-0  92947-4 0  9992","REV_AT_EPOCH":"7833","SITE":"AFETR","RA_OF_ASC_NODE":"109.2205","APOAPSIS":"548.429","DECAY_DATE":null,"EPHEMERIS_TYPE":"0","EPOCH":"2021-11-10T18:10:48.752544","LAUNCH_DATE":"2020-06-13","MEAN_ELEMENT_THEORY":"SGP4","COUNTRY_CODE":"US","MEAN_MOTION":"15.06396254","TLE_LINE2":"2 45766  53.0555 109.2205 0001738  87.6331 272.4857 15.06396254 78336","OBJECT_ID":"2020-038AN","NORAD_CAT_ID":"45766","INCLINATION":"53.0555","RCS_SIZE":"LARGE","SEMIMAJOR_AXIS":"6925.360","OBJECT_NAME":"STARLINK-1509","PERIOD":"95.592","ELEMENT_SET_NO":"999","MEAN_ANOMALY":"272.4857","FILE":"3211038","REF_FRAME":"TEME","CLASSIFICATION_TYPE":"U","BSTAR":"0.00009294700000","GP_ID":"189422530","CENTER_NAME":"EARTH","PERIAPSIS":"546.021","MEAN_MOTION_DOT":"0.00001103","MEAN_MOTION_DDOT":"0.0000000000000","TIME_SYSTEM":"UTC","ARG_OF_PERICENTER":"87.6331","ECCENTRICITY":"0.00017380"},{"LAUNCH_DATE":"2020-06-13","EPOCH":"2021-11-10T18:00:09.559296","MEAN_ELEMENT_THEORY":"SGP4","COUNTRY_CODE":"US","TLE_LINE2":"2 45767  53.0544 109.2466 0001423  89.8355 270.2797 15.06404835 78339","OBJECT_ID":"2020-038AP","MEAN_MOTION":"15.06404835","TLE_LINE1":"1 45767U 20038AP  21314.75011064  .00001659  00000-0  13023-3 0  9990","REV_AT_EPOCH":"7833","OBJECT_TYPE":"PAYLOAD","SITE":"AFETR","RA_OF_ASC_NODE":"109.2466","DECAY_DATE":null,"APOAPSIS":"548.184","EPHEMERIS_TYPE":"0","CENTER_NAME":"EARTH","PERIAPSIS":"546.213","MEAN_MOTION_DOT":"0.00001659","GP_ID":"189422757","MEAN_MOTION_DDOT":"0.0000000000000","TIME_SYSTEM":"UTC","ARG_OF_PERICENTER":"89.8355","ECCENTRICITY":"0.00014230","RCS_SIZE":"LARGE","INCLINATION":"53.0544","NORAD_CAT_ID":"45767","SEMIMAJOR_AXIS":"6925.334","PERIOD":"95.592","ELEMENT_SET_NO":"999","OBJECT_NAME":"STARLINK-1511","MEAN_ANOMALY":"270.2797","FILE":"3211038","CLASSIFICATION_TYPE":"U","REF_FRAME":"TEME","BSTAR":"0.00013023000000"},{"TLE_LINE2":"2 45768  53.0546 109.0359 0001303  82.0118 278.1019 15.06394074 78359","MEAN_MOTION":"15.06394074","OBJECT_ID":"2020-038AQ","COUNTRY_CODE":"US","MEAN_ELEMENT_THEORY":"SGP4","EPOCH":"2021-11-10T19:09:09.436032","LAUNCH_DATE":"2020-06-13","EPHEMERIS_TYPE":"0","APOAPSIS":"548.134","DECAY_DATE":null,"RA_OF_ASC_NODE":"109.0359","SITE":"AFETR","OBJECT_TYPE":"PAYLOAD","REV_AT_EPOCH":"7835","TLE_LINE1":"1 45768U 20038AQ  21314.79802588 -.00001068  00000-0 -52843-4 0  9994","ECCENTRICITY":"0.00013030","ARG_OF_PERICENTER":"82.0118","TIME_SYSTEM":"UTC","MEAN_MOTION_DDOT":"0.0000000000000","GP_ID":"189422955","PERIAPSIS":"546.329","MEAN_MOTION_DOT":"-0.00001068","CENTER_NAME":"EARTH","BSTAR":"-0.00005284300000","REF_FRAME":"TEME","CLASSIFICATION_TYPE":"U","FILE":"3211038","MEAN_ANOMALY":"278.1019","OBJECT_NAME":"STARLINK-1521","ELEMENT_SET_NO":"999","PERIOD":"95.593","SEMIMAJOR_AXIS":"6925.367","INCLINATION":"53.0546","NORAD_CAT_ID":"45768","RCS_SIZE":"LARGE"},{"ECCENTRICITY":"0.00016160","ARG_OF_PERICENTER":"79.9032","TIME_SYSTEM":"UTC","MEAN_MOTION_DDOT":"0.0000000000000","CENTER_NAME":"EARTH","PERIAPSIS":"546.076","MEAN_MOTION_DOT":"0.00001751","GP_ID":"189421779","BSTAR":"0.00013642000000","CLASSIFICATION_TYPE":"U","REF_FRAME":"TEME","FILE":"3211038","MEAN_ANOMALY":"280.2139","ELEMENT_SET_NO":"999","PERIOD":"95.592","OBJECT_NAME":"STARLINK-1459","SEMIMAJOR_AXIS":"6925.330","RCS_SIZE":"LARGE","INCLINATION":"53.0540","NORAD_CAT_ID":"45769","MEAN_MOTION":"15.06406036","TLE_LINE2":"2 45769  53.0540 128.6282 0001616  79.9032 280.2139 15.06406036 78082","OBJECT_ID":"2020-038AR","COUNTRY_CODE":"US","MEAN_ELEMENT_THEORY":"SGP4","LAUNCH_DATE":"2020-06-13","EPOCH":"2021-11-10T21:19:12.432576","EPHEMERIS_TYPE":"0","DECAY_DATE":null,"APOAPSIS":"548.314","RA_OF_ASC_NODE":"128.6282","SITE":"AFETR","TLE_LINE1":"1 45769U 20038AR  21314.88833834  .00001751  00000-0  13642-3 0  9993","REV_AT_EPOCH":"7808","OBJECT_TYPE":"PAYLOAD"},{"MEAN_ELEMENT_THEORY":"SGP4","LAUNCH_DATE":"2020-06-13","EPOCH":"2021-11-10T10:14:21.988896","TLE_LINE2":"2 45770  53.0539  90.7035 0001398  81.0466 279.0681 15.06393453 78568","OBJECT_ID":"2020-038AS","MEAN_MOTION":"15.06393453","COUNTRY_CODE":"US","SITE":"AFETR","REV_AT_EPOCH":"7856","TLE_LINE1":"1 45770U 20038AS  21314.42664339 -.00000607  00000-0 -21865-4 0  9995","OBJECT_TYPE":"PAYLOAD","RA_OF_ASC_NODE":"90.7035","EPHEMERIS_TYPE":"0","DECAY_DATE":null,"APOAPSIS":"548.202","MEAN_MOTION_DDOT":"0.0000000000000","PERIAPSIS":"546.265","MEAN_MOTION_DOT":"-0.00000607","CENTER_NAME":"EARTH","GP_ID":"189423030","TIME_SYSTEM":"UTC","ARG_OF_PERICENTER":"81.0466","ECCENTRICITY":"0.00013980","SEMIMAJOR_AXIS":"6925.369","RCS_SIZE":"LARGE","NORAD_CAT_ID":"45770","INCLINATION":"53.0539","MEAN_ANOMALY":"279.0681","ELEMENT_SET_NO":"999","PERIOD":"95.593","OBJECT_NAME":"STARLINK-1462","CLASSIFICATION_TYPE":"U","REF_FRAME":"TEME","FILE":"3211038","BSTAR":"-0.00002186500000"},{"MEAN_ELEMENT_THEORY":"SGP4","EPOCH":"2021-11-10T10:05:06.677088","LAUNCH_DATE":"2020-06-13","MEAN_MOTION":"15.06404612","TLE_LINE2":"2 45771  53.0549  90.7292 0001549  79.9745 280.1419 15.06404612 79685","OBJECT_ID":"2020-038AT","COUNTRY_CODE":"US","RA_OF_ASC_NODE":"90.7292","EPHEMERIS_TYPE":"0","APOAPSIS":"548.272","DECAY_DATE":null,"SITE":"AFETR","OBJECT_TYPE":"PAYLOAD","REV_AT_EPOCH":"7968","TLE_LINE1":"1 45771U 20038AT  21314.42021617  .00001546  00000-0  12265-3 0  9996","ARG_OF_PERICENTER":"79.9745","ECCENTRICITY":"0.00015490","MEAN_MOTION_DDOT":"0.0000000000000","GP_ID":"189372980","CENTER_NAME":"EARTH","PERIAPSIS":"546.127","MEAN_MOTION_DOT":"0.00001546","TIME_SYSTEM":"UTC","REF_FRAME":"TEME","CLASSIFICATION_TYPE":"U","FILE":"3210723","BSTAR":"0.00012265000000","SEMIMAJOR_AXIS":"6925.334","INCLINATION":"53.0549","NORAD_CAT_ID":"45771","RCS_SIZE":"LARGE","MEAN_ANOMALY":"280.1419","OBJECT_NAME":"STARLINK-1463","PERIOD":"95.592","ELEMENT_SET_NO":"999"},{"TIME_SYSTEM":"UTC","GP_ID":"189423455","CENTER_NAME":"EARTH","PERIAPSIS":"546.134","MEAN_MOTION_DOT":"0.00001360","MEAN_MOTION_DDOT":"0.0000000000000","ECCENTRICITY":"0.00015200","ARG_OF_PERICENTER":"71.1421","OBJECT_NAME":"STARLINK-1470","PERIOD":"95.592","ELEMENT_SET_NO":"999","MEAN_ANOMALY":"288.9732","INCLINATION":"53.0554","NORAD_CAT_ID":"45772","RCS_SIZE":"LARGE","SEMIMAJOR_AXIS":"6925.322","BSTAR":"0.00011015000000","FILE":"3211038","REF_FRAME":"TEME","CLASSIFICATION_TYPE":"U","COUNTRY_CODE":"US","OBJECT_ID":"2020-038AU","TLE_LINE2":"2 45772  53.0554  90.1887 0001520  71.1421 288.9732 15.06408668 78598","MEAN_MOTION":"15.06408668","EPOCH":"2021-11-10T13:00:16.626240","LAUNCH_DATE":"2020-06-13","MEAN_ELEMENT_THEORY":"SGP4","OBJECT_TYPE":"PAYLOAD","TLE_LINE1":"1 45772U 20038AU  21314.54185910  .00001360  00000-0  11015-3 0  9993","REV_AT_EPOCH":"7859","SITE":"AFETR","APOAPSIS":"548.240","DECAY_DATE":null,"EPHEMERIS_TYPE":"0","RA_OF_ASC_NODE":"90.1887"},{"DECAY_DATE":null,"APOAPSIS":"548.255","EPHEMERIS_TYPE":"0","RA_OF_ASC_NODE":"90.2117","REV_AT_EPOCH":"7955","TLE_LINE1":"1 45773U 20038AV  21314.53447957 -.00000177  00000-0  70410-5 0  9997","OBJECT_TYPE":"PAYLOAD","SITE":"AFETR","COUNTRY_CODE":"US","MEAN_MOTION":"15.06392501","TLE_LINE2":"2 45773  53.0551  90.2117 0001470  92.5435 267.5723 15.06392501 79557","OBJECT_ID":"2020-038AV","LAUNCH_DATE":"2020-06-13","EPOCH":"2021-11-10T12:49:39.034848","MEAN_ELEMENT_THEORY":"SGP4","BSTAR":"0.00000704100000","FILE":"3210908","CLASSIFICATION_TYPE":"U","REF_FRAME":"TEME","PERIOD":"95.593","ELEMENT_SET_NO":"999","OBJECT_NAME":"STARLINK-1482","MEAN_ANOMALY":"267.5723","RCS_SIZE":"LARGE","NORAD_CAT_ID":"45773","INCLINATION":"53.0551","SEMIMAJOR_AXIS":"6925.372","ECCENTRICITY":"0.00014700","ARG_OF_PERICENTER":"92.5435","TIME_SYSTEM":"UTC","MEAN_MOTION_DOT":"-0.00000177","PERIAPSIS":"546.219","CENTER_NAME":"EARTH","GP_ID":"189400386","MEAN_MOTION_DDOT":"0.0000000000000"}];
